[{"OBJECT_NAME":"CENTISPACE-1 S6","OBJECT_ID":"2022-126B","EPOCH":"2026-03-09T21:15:48.172608","MEAN_MOTION":14.62129457,"ECCENTRICITY":0.00134492,"INCLINATION":54.9982,"RA_OF_ASC_NODE":251.6889,"ARG_OF_PERICENTER":194.8443,"MEAN_ANOMALY":165.2158,"EPHEMERIS_TYPE":0,"CLASSIFICATION_TYPE":"U","NORAD_CAT_ID":54021,"ELEMENT_SET_NO":999,"REV_AT_EPOCH":18247,"BSTAR":0.0002040301,"MEAN_MOTION_DOT":8.46e-6,"MEAN_MOTION_DDOT":0},{"OBJECT_NAME":"CSTB 1","OBJECT_ID":"2007-012F","EPOCH":"2026-03-09T21:40:39.805536","MEAN_MOTION":14.72593257,"ECCENTRICITY":0.00636395,"INCLINATION":98.4141,"RA_OF_ASC_NODE":68.0118,"ARG_OF_PERICENTER":219.6201,"MEAN_ANOMALY":140.0346,"EPHEMERIS_TYPE":0,"CLASSIFICATION_TYPE":"U","NORAD_CAT_ID":31122,"ELEMENT_SET_NO":999,"REV_AT_EPOCH":693,"BSTAR":0.00042600934,"MEAN_MOTION_DOT":2.741e-5,"MEAN_MOTION_DDOT":0}]
